ONEWEB-0310             
1 49096U 21075X   26194.84238071 -.00000241  00000+0 -70582-3 0  9991
2 49096  87.8961 345.3788 0001860  96.2243 263.9097 13.12444082238680
ONEWEB-0311             
1 49097U 21075Y   26194.82530984 -.00000023  00000+0 -93330-4 0  9993
2 49097  87.9141   0.5633 0001745  78.4804 281.6523 13.17647301237132
ONEWEB-0312             
1 49098U 21075Z   26194.84050309  .00000003  00000+0 -24646-4 0  9995
2 49098  87.9141   0.5706 0002046  85.5448 274.5917 13.17648085237118
ONEWEB-0313             
1 49099U 21075AA  26194.84541884 -.00000022  00000+0 -90852-4 0  9993
2 49099  87.9138   0.5740 0001823  88.0780 272.0560 13.17649672237101
ONEWEB-0314             
1 49100U 21075AB  26194.50806153 -.00000039  00000+0 -13439-3 0  9995
2 49100  87.9151   0.6171 0002059  82.9922 277.1444 13.17650335237038
ONEWEB-0315             
1 49101U 21075AC  26194.81527799 -.00000063  00000+0 -21171-3 0  9995
2 49101  87.8968 345.3506 0001608  87.3189 272.8124 13.12441436238660
ONEWEB-0316             
1 49102U 21075AD  26194.79160323  .00000010  00000+0 -76244-5 0  9993
2 49102  87.9189 330.1648 0001969  98.7999 261.3356 13.18685700240710
ONEWEB-0317             
1 49103U 21075AE  26194.81866617 -.00000220  00000+0 -64639-3 0  9993
2 49103  87.8964 345.3733 0002420 108.5997 251.5395 13.12441378238687
ONEWEB-0318             
1 49104U 21075AF  26194.86397037  .00000005  00000+0 -19993-4 0  9998
2 49104  87.9194 330.1524 0001797  93.4609 266.6729 13.18686455240686
ONEWEB-0319             
1 49105U 21075AG  26194.82699440  .00000044  00000+0  80824-4 0  9991
2 49105  87.9144   0.5677 0001562  78.0423 282.0884 13.17647813237114
ONEWEB-0323             
1 49106U 21075AH  26194.87627477  .00000340  00000+0  91103-3 0  9998
2 49106  87.8971 345.3432 0001689  76.7950 283.3367 13.12442031238055
ONEWEB-0329             
1 49107U 21075AJ  26194.83542508  .00000029  00000+0  40317-4 0  9992
2 49107  87.9146   0.5671 0001938  88.1657 271.9696 13.17650462237099
ONEWEB-0330             
1 49108U 21075AK  26194.53518422  .00000078  00000+0  16672-3 0  9998
2 49108  87.9143   0.6377 0002006  89.2576 270.8786 13.17646811237091
ONEWEB-0292             
1 49186U 21083A   26194.82771008 -.00000292  00000+0 -83363-3 0  9997
2 49186  87.8974 314.9362 0001817  97.1012 263.0323 13.13470025234428
ONEWEB-0303             
1 49187U 21083B   26194.86058492  .00000009  00000+0 -92320-5 0  9997
2 49187  87.9193 330.1515 0001805  93.5743 266.5596 13.18684291233494
ONEWEB-0306             
1 49188U 21083C   26194.85047894 -.00000067  00000+0 -20389-3 0  9990
2 49188  87.9198 330.1428 0002101 101.9658 258.1710 13.18684605233531
ONEWEB-0307             
1 49189U 21083D   26194.82177604 -.00000287  00000+0 -82209-3 0  9994
2 49189  87.8976 314.9350 0001921  96.7028 263.4320 13.13468407234420
ONEWEB-0320             
1 49190U 21083E   26194.79482543  .00000003  00000+0 -25470-4 0  9996
2 49190  87.9185 330.1693 0001923  98.9998 261.1352 13.18687082233489
ONEWEB-0321             
1 49191U 21083F   26194.71591933  .00000120  00000+0  26387-3 0  9999
2 49191  87.9186 269.1489 0002056 104.2825 255.8537 13.20772379240337
ONEWEB-0322             
1 49192U 21083G   26194.81755976 -.00000247  00000+0 -71231-3 0  9990
2 49192  87.8978 314.9351 0002022 114.0845 246.0495 13.13470198234410
ONEWEB-0324             
1 49193U 21083H   26194.84373956 -.00000002  00000+0 -38264-4 0  9997
2 49193  87.9198 330.1496 0002051  94.6005 265.5362 13.18686653233518
ONEWEB-0325             
1 49194U 21083J   26194.84710316 -.00000026  00000+0 -99934-4 0  9990
2 49194  87.9188 330.1545 0001835 100.1467 259.9872 13.18687453233520
ONEWEB-0326             
1 49195U 21083K   26194.86243426  .00000026  00000+0  34137-4 0  9998
2 49195  87.9195 330.1516 0001670  92.3695 267.7629 13.18686458233519
ONEWEB-0327             
1 49196U 21083L   26194.86215391  .00000056  00000+0  10890-3 0  9991
2 49196  87.9185 330.1535 0001493  92.4193 267.7110 13.18686424233537
ONEWEB-0328             
1 49197U 21083M   26194.88358144 -.00000103  00000+0 -31697-3 0  9991
2 49197  87.8986 314.8983 0002043  98.0137 262.1224 13.13468941234403
ONEWEB-0331             
1 49198U 21083N   26194.85553617 -.00000008  00000+0 -54236-4 0  9990
2 49198  87.9197 330.1470 0001737  87.3630 272.7701 13.18684526233522
ONEWEB-0333             
1 49199U 21083P   26194.80232558  .00000060  00000+0  12929-3 0  9992
2 49199  87.8977 314.9380 0001871 100.4903 259.6437 13.13469005234403
ONEWEB-0334             
1 49200U 21083Q   26194.73021360  .00000004  00000+0 -22182-4 0  9996
2 49200  87.9189 269.1557 0002373 117.0266 243.1109 13.20769184240290
ONEWEB-0335             
1 49201U 21083R   26194.79724356  .00000442  00000+0  11748-2 0  9997
2 49201  87.8975 314.9361 0001790  94.7564 265.3770 13.13467133234417
ONEWEB-0336             
1 49202U 21083S   26194.84464082  .00000045  00000+0  88167-4 0  9991
2 49202  87.8974 314.9219 0001858  90.6714 269.4628 13.13469254234419
ONEWEB-0337             
1 49203U 21083T   26194.85467235  .00000270  00000+0  70572-3 0  9996
2 49203  87.8974 314.9256 0002057  95.1449 264.9915 13.13469502234413
